ALOS-4 (DAICHI-4)       
1 60182U 24123A   24232.83971342  .00005145  00000+0  69527-3 0  9995
2 60182  97.9222 328.5875 0001507  97.8482 262.2901 14.79471296  7356
